{"type": "FeatureCollection", "features": [{"type": "Feature", "properties": {"name": "Combined Regions", "area": 172.10642925570025, "regions": ["Липецкая область", "Новгородская область", "Владимирская область", "Тамбовская область", "Дагестан", "Рязанская область", "Волгоградская область", "Воронежская область", "Псковская область", "Белгородская область", "Ростовская область", "Адыгея", "Калмыкия", "Тверская область", "Ставропольский край", "Москва", "Тульская область", "Краснодарский край", "Ярославская область", "Ленинградская область", "Московская область", "Смоленская область", "Брянская область", "Калужская область", "Курская область", "Астраханская область", "Орловская область"]}, "geometry": {"type": "MultiPolygon", "coordinates": [[[[40.150138787605044, 43.56979564063258], [40.08461307145896, 43.55310415300231], [40.02373823421914, 43.48483958594474], [39.97831465023458, 43.41983063412157], [39.873632812500006, 43.472802734374994], [39.516699218750006, 43.727880859375], [39.32939453125002, 43.897265624999996], [38.71728515625, 44.2880859375], [38.635839843750006, 44.318017578124994], [38.31181640625002, 44.374462890625], [38.181250000000006, 44.419677734375], [37.85146484375002, 44.698828125], [37.70488281250002, 44.661376953125], [37.57246093750001, 44.670849609375], [37.4951171875, 44.695263671875], [37.41132812500001, 44.7353515625], [37.35234375000002, 44.788378906249996], [37.28408203125002, 44.905029296875], [37.20478515625001, 44.971972656249996], [36.944433593750006, 45.069580078125], [36.65078125000002, 45.12646484375], [36.62763671875001, 45.151318359375], [36.619140625, 45.185498046875], [36.873046875, 45.251757812499996], [36.94121093750002, 45.289697265624994], [36.81103515625, 45.3400390625], [36.76162109375002, 45.34833984375], [36.72041015625001, 45.371874999999996], [36.79375000000002, 45.409716796874996], [36.86591796875001, 45.427050781249996], [36.97783203125002, 45.383593749999996], [37.103515625, 45.302880859374994], [37.21357421875001, 45.272314453125], [37.264257812500006, 45.310937499999994], [37.64716796875001, 45.377197265625], [37.672949218750006, 45.429736328124996], [37.671875, 45.48837890625], [37.634375000000006, 45.486328125], [37.609960937500006, 45.49951171875], [37.612402343750006, 45.564697265625], [37.66923828125002, 45.654052734375], [37.840917968750006, 45.799560546875], [37.93310546875, 46.001708984375], [38.014257812500006, 46.047753906249994], [38.073828125000006, 46.01708984375], [38.06972656250002, 45.969873046874994], [38.07958984375, 45.934814453125], [38.1328125, 46.002832031249994], [38.18359375, 46.09482421875], [38.31181640625002, 46.095361328124994], [38.400390625, 46.080029296875], [38.492285156250006, 46.09052734375], [38.31523437500002, 46.241943359375], [38.077734375000006, 46.394335937499996], [37.9775390625, 46.382861328124996], [37.91386718750002, 46.406494140625], [37.8095703125, 46.532080078125], [37.76650390625002, 46.636132812499994], [37.86738281250001, 46.6337890625], [37.96796875000001, 46.618017578125], [38.15947265625002, 46.690673828125], [38.22998046875, 46.70126953125], [38.34345703125001, 46.6783203125], [38.5009765625, 46.663671875], [38.48798828125001, 46.732177734375], [38.43867187500001, 46.8130859375], [38.63076171875002, 46.873046875], [38.66561036761221, 46.87982078094282], [38.80107421875002, 46.906152343749994], [39.12675781250002, 47.0234375], [39.27070312500001, 47.044140625], [39.2890625, 47.0708984375], [39.29345703125, 47.105761718749996], [39.24453125000002, 47.199511718749996], [39.19570312500002, 47.268847656249996], [39.02373046875002, 47.272216796875], [38.928320312500006, 47.175683593749994], [38.66816406250001, 47.143945312499994], [38.55244140625001, 47.150341796875], [38.64433593750002, 47.212207031249996], [38.73603515625001, 47.23583984375], [38.76191406250001, 47.261621093749994], [38.577246093750006, 47.239111328125], [38.48476562500002, 47.175537109375], [38.21435546875, 47.091455078124994], [38.20581302262332, 47.13557282163643], [38.201368849446226, 47.175260321636586], [38.22121259944629, 47.212725735048195], [38.26534427262354, 47.23696198179309], [38.28074384944654, 47.25905365659786], [38.28074384944654, 47.27664948179324], [38.24105634944638, 47.28770823830371], [38.20798343277957, 47.29651907000947], [38.201368849446226, 47.320781154970504], [38.21242760595666, 47.342795315126835], [38.24327843603493, 47.37369782163738], [38.256507602701646, 47.40894114846044], [38.25872968929019, 47.47953115497114], [38.287410109212175, 47.559164537132915], [38.36885216650418, 47.60996247007583], [38.510962355306816, 47.62241649025816], [38.64056684749485, 47.66592804624793], [38.718908318849316, 47.71409048114394], [38.82231285986535, 47.83702871356631], [38.90029259619379, 47.855115464868476], [39.05780236181943, 47.84850088153512], [39.15846805192399, 47.837416286808505], [39.390960320805135, 47.83372142189964], [39.658489210780175, 47.841214504581956], [39.735952182785695, 47.84480601662624], [39.778688592291076, 47.88754242613162], [39.77579471208273, 47.96446279559808], [39.81393191911411, 48.03528534605408], [39.88503868994775, 48.168377997421814], [39.96100304541679, 48.237934475286664], [39.95790245947927, 48.268914496445646], [39.91811160661453, 48.28191111916705], [39.86633182145809, 48.28842234963582], [39.84741824723926, 48.302788397812975], [39.84989871598927, 48.33193390562559], [39.889792921718595, 48.360459296250696], [39.88255822119774, 48.41911204690197], [39.85754682796846, 48.48425018980588], [39.8356360206767, 48.54277374937644], [39.765407749192065, 48.57186758075676], [39.64474327979053, 48.59119456643391], [39.67042646663958, 48.66243052834827], [39.704584588384506, 48.73935089781472], [39.75584760921805, 48.78206146910395], [39.79289961117132, 48.80771881773687], [39.90415896989572, 48.79376618101806], [39.98446414567729, 48.80735708271082], [40.00358442562529, 48.82208486591401], [39.989166701015876, 48.85143707945579], [39.8637479998435, 48.877998765653814], [39.75336714046804, 48.91443065041959], [39.705618117030355, 48.959595852242686], [39.68654951351465, 49.00791331643558], [39.75946495947849, 49.036593736357574], [39.8897412452863, 49.0640597601207], [39.97635094580747, 49.12981802021211], [40.06998864112035, 49.20027883564208], [40.10879764177156, 49.251541856475626], [40.128279656745576, 49.30724905048626], [40.12621259945391, 49.36887319599431], [40.05784467953177, 49.431556708364354], [40.05784467953177, 49.49708242451045], [40.09489668148504, 49.54266103779189], [40.08063398617247, 49.57684499775296], [40.03066287614624, 49.59674042418533], [39.95852257666678, 49.59077179625562], [39.87682213721334, 49.56767243102115], [39.780548943853574, 49.57203908954982], [39.6265531756238, 49.650664781281904], [39.46279056169084, 49.72802440042284], [39.368481072758186, 49.730659898469725], [39.302955356612074, 49.742054551790076], [39.24600792822642, 49.7819487575194], [39.2117981300492, 49.83321177835295], [39.17456052063495, 49.85589908495568], [39.11495649593425, 49.84176422789726], [39.027675001793256, 49.818406480501324], [38.91837934749594, 49.82468516702478], [38.77668257015165, 49.88434560810576], [38.647749871583414, 49.95286855732478], [38.551993442546575, 49.95457387959041], [38.45122439957743, 49.96408234313212], [38.258574659993315, 50.05234568948663], [38.20865522639937, 50.05146719013767], [38.17759769059194, 50.02537059183028], [38.1626632016596, 49.95452220315812], [38.146798536945994, 49.93940684671274], [38.11248538590419, 49.92783132587937], [38.04690799332579, 49.92000234638715], [37.950273064940006, 49.96421153421285], [37.704189894366095, 50.10906057392697], [37.60512617366257, 50.21491974547686], [37.582336867021866, 50.29186595315947], [37.5013082211882, 50.34070018167529], [37.422811720536856, 50.41149689391516], [37.34317833837508, 50.417646389357884], [37.25491499202056, 50.39496043558175], [37.171044142410835, 50.36087982848527], [37.1312016131138, 50.35150055602429], [36.98852298355595, 50.33956330016487], [36.75907962418003, 50.29184011494333], [36.696396111809975, 50.24626150166189], [36.61944990412738, 50.20923533792477], [36.5596602719657, 50.234866848341525], [36.499818963371695, 50.28044546162296], [36.36887088394408, 50.29682689065949], [36.30608401870947, 50.28044546162296], [36.24340050633941, 50.31176137959184], [36.18945031102672, 50.36783030862853], [36.116379835766, 50.40852549905837], [36.007755975088486, 50.419661770217274], [35.89019209162447, 50.43712840433193], [35.796192661285545, 50.405760809930754], [35.673719516753806, 50.34597117776906], [35.5910889015191, 50.368760484409776], [35.545510288237665, 50.439970608107984], [35.488511183419746, 50.45991771097265], [35.411616652169414, 50.53968028421515], [35.391669549304765, 50.61091624612949], [35.411616652169414, 50.642232164098374], [35.44014204279455, 50.68210053161155], [35.44014204279455, 50.72767914489299], [35.417352736153816, 50.767573350622314], [35.3831429379766, 50.79891510680733], [35.34614261245562, 50.904309190466606], [35.31477501805446, 50.94988780374804], [35.31334287358878, 50.95921627201768], [35.30909061050235, 50.986913967485165], [35.33472212091911, 51.02112376566238], [35.31193281427841, 51.0439130723031], [35.26919640477303, 51.04675527607915], [35.19798628107483, 51.0439130723031], [35.15809207534551, 51.06099213317556], [35.11535566584013, 51.12083344176956], [35.092566359199395, 51.180648912147404], [35.06409264500658, 51.20343821878812], [34.9902470232615, 51.201732896522486], [34.86854902521412, 51.1892013616917], [34.76039025242724, 51.16933177347548], [34.71227949396351, 51.172225653683824], [34.61683312352042, 51.20312816019437], [34.491052687322, 51.23707957621012], [34.234220818831375, 51.243797512408065], [34.21386030450839, 51.255373033241455], [34.22838138198239, 51.27687042907486], [34.28067793146178, 51.31167450622344], [34.27499352390967, 51.340174058632414], [34.22987999851887, 51.36324758565074], [34.20657392755524, 51.41993663187492], [34.20926110203442, 51.48409292256528], [34.20088952000313, 51.55383026794317], [34.14678429539353, 51.6079613307689], [34.11541670099237, 51.64496165628988], [34.12115278497677, 51.679171454467095], [34.23918175633139, 51.69224559183695], [34.37932824070697, 51.716507676797974], [34.40268598810289, 51.741493231811106], [34.39782840346746, 51.780405585326875], [34.11303958510695, 51.979618231812054], [34.015319451642995, 52.15596405700808], [33.92204349135616, 52.251462103883455], [33.8188456560693, 52.315644232789964], [33.735233188621066, 52.34476390238643], [33.61338016127681, 52.33261994079784], [33.45183963393242, 52.33380849874055], [33.287095167785935, 52.353548895876045], [33.14844729994684, 52.34042308207391], [32.89972863132604, 52.25634552673503], [32.8065043474715, 52.25262482361002], [32.64542890801775, 52.27908315694346], [32.50791792168906, 52.30853872334983], [32.435467563615845, 52.30724681254253], [32.3913358904386, 52.294844468792476], [32.36301720554266, 52.2721326768002], [32.28281538262567, 52.114028632203215], [32.216772902156634, 52.082971096395795], [32.12225670749481, 52.050595811564946], [32.04158979668719, 52.04504059509357], [31.97379031752027, 52.04664256449462], [31.875605096165685, 52.070878811239496], [31.782380812311146, 52.099404201864616], [31.76336388522776, 52.101083685914105], [31.758609653456887, 52.12581085876576], [31.690603468560795, 52.22063711202135], [31.64988243991479, 52.26218496358402], [31.601513299289593, 52.28481924092786], [31.577328728976994, 52.31231110290713], [31.576501906060344, 52.4260250921654], [31.585545281711404, 52.532452704470515], [31.615931023899037, 52.54619863546016], [31.526169061008062, 52.63298920349436], [31.519451124810104, 52.69874746358576], [31.563479445122795, 52.731458645226525], [31.56482303236237, 52.759234727583404], [31.53516076022683, 52.79822459574763], [31.442814975721262, 52.86183828389892], [31.353001336397995, 52.93346181905545], [31.29517540866337, 52.9897891302536], [31.2587952003299, 53.01671255147767], [31.302926873507147, 53.06089590108721], [31.364525180799063, 53.138978990280236], [31.388399692517908, 53.18481598572312], [31.417855258924277, 53.19602977153046], [31.56296268079987, 53.202489325566944], [31.668279249810695, 53.20091319438204], [31.747447544081865, 53.184195868535625], [31.77741987481113, 53.14688548442089], [31.849715203587465, 53.10621613220718], [32.05543908054142, 53.08947296814462], [32.14199710463029, 53.09115245219411], [32.250672641740124, 53.1283853216604], [32.42626915866791, 53.21060252543677], [32.469367303199334, 53.27028880473388], [32.57804284030914, 53.312405097051766], [32.64444705580419, 53.328889878952864], [32.70428836439817, 53.3363312852029], [32.71028283054403, 53.371419582729075], [32.70645877455445, 53.419426988328226], [32.70615148155033, 53.419852000542875], [32.68568484877309, 53.448159084682516], [32.469625685360796, 53.54696442322458], [32.44239220554297, 53.57926219340699], [32.42523563002206, 53.61727020935767], [32.45097049330343, 53.6533403590974], [32.45014367038675, 53.692898668016824], [32.20044314955243, 53.781239529019786], [31.99213545098388, 53.79687164978807], [31.820828077936312, 53.791936550504204], [31.754217156712087, 53.81046255148084], [31.783052605930948, 53.85495595968413], [31.825272251113404, 53.93502859152039], [31.837777947728057, 54.00078685161181], [31.825944044733205, 54.030707505908794], [31.792044305149744, 54.055899766651095], [31.62838504408137, 54.11119354920339], [31.40359256361174, 54.19594289816206], [31.299102817517564, 54.29169932719891], [31.24556603366318, 54.391641547251396], [31.184794549287943, 54.452955634165704], [31.07482710137083, 54.49181631124918], [31.081906772594806, 54.51708608663991], [31.154925571423234, 54.6109563258981], [31.152135044079472, 54.625348212291385], [31.121284214001236, 54.64849925395815], [30.984186639130883, 54.69588654236979], [30.798874952932238, 54.78327138937536], [30.79107181165614, 54.80600901958378], [30.804456007619734, 54.86094106711003], [30.829932488739644, 54.91499461528734], [30.866829461396037, 54.940729478568684], [30.977675408662094, 55.05049022075663], [30.977675408662094, 55.08780060487136], [30.95886518730785, 55.13761668560073], [30.877474806448163, 55.22345123963753], [30.81448123548438, 55.27871918397369], [30.810553826630183, 55.306960354221204], [30.82099246595314, 55.33026642518483], [30.86181684746373, 55.36039378521099], [30.90057417168262, 55.39739411073198], [30.90873904798474, 55.52534495708666], [30.90687869642224, 55.57004507101912], [30.903138399523932, 55.57404413059593], [30.88222903821901, 55.596400051487976], [30.85592573418245, 55.60751048443073], [30.800735304494737, 55.601102606826544], [30.721618686655887, 55.62213491476933], [30.6623458188171, 55.65549205181374], [30.625603875457585, 55.666266587946595], [30.586691521941788, 55.70026968039464], [30.4753804867851, 55.76879262961367], [30.4562602068371, 55.78680186626738], [30.233638136523723, 55.84522207297336], [30.04264204277294, 55.83643707948373], [29.93701541516836, 55.84527374940565], [29.88161827975148, 55.83230296490038], [29.82394738131373, 55.79509593365023], [29.74415896985508, 55.77042043723087], [29.684576043422567, 55.76974864361107], [29.630057407354627, 55.75117096620214], [29.482262810999885, 55.684560044977914], [29.413016391728775, 55.72486766216558], [29.353381788863942, 55.784373073949666], [29.37317386243174, 55.834731757218094], [29.39792687349953, 55.88105967876777], [29.396118198369322, 55.912194729223614], [29.37503421399424, 55.938704738989344], [29.2829984880824, 55.96785024680197], [29.087403191857675, 56.021128648494894], [29.03174767427933, 56.021774603898535], [28.947411736778975, 56.00211172141148], [28.7947595557888, 55.94258047141123], [28.740809360476078, 55.95539622661963], [28.69078657401755, 56.00262848573439], [28.63688805513712, 56.0617463242763], [28.563972609173277, 56.09200287538319], [28.407082960735153, 56.089031480526415], [28.39209679537052, 56.08670604107327], [28.31633914563062, 56.05254791932835], [28.28429975760966, 56.05590688742731], [28.1479256527914, 56.14292999940683], [28.173350457479017, 56.190343126034634], [28.202030877401, 56.26039053000626], [28.19169559094263, 56.31555512147784], [28.169268019327944, 56.38686859804062], [28.11087365083813, 56.51068532981195], [28.103173862426644, 56.54572195090584], [28.00752078625439, 56.599853013731575], [27.991604445108493, 56.645328274148426], [27.941374952920796, 56.70372264263824], [27.892075636514335, 56.741084703185265], [27.881533644326794, 56.8241804063106], [27.84866743338918, 56.8534292669878], [27.806086053180678, 56.86707184511286], [27.655707635211314, 56.84322317161015], [27.639481235471663, 56.84565196392788], [27.711104770628197, 56.978072821675795], [27.717409295367816, 57.05463145611621], [27.76278120292008, 57.135117499410796], [27.814560988076522, 57.16689850527031], [27.830218947060985, 57.19446788189802], [27.838228794066225, 57.24769460715865], [27.82861697765992, 57.29329905865623], [27.796887648232712, 57.31694102642976], [27.672760857867644, 57.368126532614866], [27.538712192502516, 57.42980235455521], [27.511116977658645, 57.50816966412583], [27.469672478960575, 57.52403432883945], [27.351953566199683, 57.52811676699049], [27.354279005652813, 57.550285956443716], [27.371797316199775, 57.61255605735542], [27.400012648231126, 57.66681631126188], [27.491996697710675, 57.72495229759025], [27.514734327919086, 57.764226386132066], [27.542122837033787, 57.79941803652284], [27.75285932792005, 57.8410175645178], [27.776940545368063, 57.856727199934525], [27.778490838336808, 57.87067983665332], [27.768775669065946, 57.88414154726536], [27.721956821409492, 57.9054839138019], [27.673380975055125, 57.93460358339837], [27.644080437945632, 58.013926906966404], [27.571113315549525, 58.13810537376378], [27.50243533703363, 58.22135610618598], [27.487810906695017, 58.270086981837224], [27.50553592297112, 58.32625926373848], [27.53013390474206, 58.38147553164235], [27.531374139117077, 58.43524485944205], [27.42703942231978, 58.73305613874011], [27.43417076997605, 58.78726471621428], [27.464401482866805, 58.84131826439159], [27.513080682085757, 58.886276760485515], [27.62175621919556, 58.94495534935294], [27.669390063147297, 58.982473793362836], [27.757665236123188, 59.05200307884556], [27.84949425630583, 59.19266632754403], [27.89765669120186, 59.27762238223187], [27.938171014118694, 59.29700104434133], [28.016460809040893, 59.30172943789603], [28.046123081176432, 59.32785187441958], [28.061367628702527, 59.34325145124255], [28.128288608520506, 59.3575658229874], [28.15107791516121, 59.3744381781307], [28.13299116385906, 59.40309275983654], [28.06581180187962, 59.45316722272737], [28.012500000000017, 59.484277343749994], [28.06396484375, 59.55400390625], [28.046289062500023, 59.64716796875], [28.013964843750017, 59.724755859374994], [28.058007812500023, 59.78154296875], [28.131152343750017, 59.786523437499994], [28.212500000000006, 59.724658203125], [28.334570312500006, 59.692529296874994], [28.423730468750023, 59.73408203125], [28.453906250000017, 59.8142578125], [28.518164062500006, 59.849560546875], [28.603906250000023, 59.81806640625], [28.747656250000006, 59.806689453125], [28.86689453125001, 59.811914062499994], [28.947265625, 59.828759765624994], [28.981542968750006, 59.85478515625], [29.01337890625001, 59.9015625], [29.0791015625, 59.960986328125], [29.147265625000017, 59.999755859375], [29.669726562500017, 59.9556640625], [29.679563429108953, 59.86885244408501], [29.849992303402075, 59.827562975350986], [30.113438754794686, 59.66307689128547], [30.259372999564278, 59.60985016525291], [30.502458937429992, 59.63072744451591], [30.55558230977573, 59.685917874410336], [30.74771528473258, 59.72565705043252], [30.756190219602956, 59.77748851248481], [30.51165734181285, 59.86239288991993], [30.52726362531604, 59.97034495695419], [30.37368126797611, 60.036232407999194], [30.3904244321418, 60.12273875588886], [30.17906782432061, 60.14795685492487], [29.632951287771675, 60.266011663907136], [29.45916928335849, 60.1874964865828], [29.370410156250017, 60.175927734374994], [29.069140625000017, 60.191455078125], [28.81269531250001, 60.33154296875], [28.643164062500006, 60.37529296875], [28.522265625000017, 60.482958984375], [28.491601562500023, 60.54013671875], [28.622460937500023, 60.491601562499994], [28.64033203125001, 60.542871093749994], [28.65058593750001, 60.610986328124994], [28.57783203125001, 60.6525390625], [28.512792968750006, 60.677294921875], [28.179296875000006, 60.57099609375], [27.797656250000017, 60.5361328125], [28.152008090942473, 60.74582733829243], [28.4074446957612, 60.89692922631387], [28.45503868990201, 60.91964101830615], [28.568106723756642, 60.960207017655264], [28.662829624147633, 61.00284007429606], [28.739052361778164, 61.05875397403587], [28.99299035006041, 61.169031480546735], [29.251630893681238, 61.28778392195346], [29.277360043513063, 61.30450676461466], [29.49125450998764, 61.23915639924837], [29.57641727074042, 61.1707368035606], [29.86952599462893, 61.17629201926127], [32.703358189428855, 60.645704250950416], [32.90996056542775, 60.72440745753812], [33.078012322910354, 60.73789500574986], [33.25340213370151, 60.89884125392069], [33.422590772745934, 60.93597077093432], [33.40636437431641, 60.989300848855066], [33.75228641128882, 60.94367055944872], [33.86711144363818, 61.07053620098486], [33.69626915909441, 61.121670030147754], [33.58495812421802, 61.07128550891906], [33.451529574829976, 61.13368480091282], [33.53493533729596, 61.22081126642678], [34.21613406783297, 61.241946927208915], [34.4572563009375, 61.16779124596917], [34.543866000715354, 61.270058906093595], [34.74054650191948, 61.32003001617227], [34.8221952651993, 61.27832713538896], [35.25803429474689, 61.25424591701545], [35.392186313647414, 61.16166758948765], [35.60385297983112, 61.18830679002633], [35.68601850794778, 61.12086904626943], [35.489338005844274, 60.95948354852692], [35.43993533744583, 60.8615567081755], [35.28087527787176, 60.85000702630322], [35.154061314078376, 60.787297675047625], [35.25855105958374, 60.585294501240185], [35.23105919832335, 60.341175035499475], [35.147446730282354, 60.26882803028934], [35.15705854671455, 60.06703156205691], [35.23788048679501, 59.98548615246392], [35.40365848205329, 59.9742723664765], [35.38247114442777, 59.87541535103759], [35.42360558443016, 59.701110744964865], [35.497089471202116, 59.647367254994776], [35.49584923685279, 59.553522853796665], [35.32366336427282, 59.506678168462656], [35.448513625103715, 59.42769074193416], [35.30123579319729, 59.301031805973025], [35.134734328426475, 59.254367987792364], [34.9005367365811, 59.23793488198919], [34.72990115671297, 59.10321442320702], [34.87852257665554, 59.043373115177076], [34.83149702326898, 58.99102488918726], [35.13080691890417, 58.93733307606061], [35.12460574715749, 58.815014959872485], [35.26568240731723, 58.76478546827474], [35.3984908381816, 58.84354035080651], [35.751234165424364, 58.82653880512174], [35.836086866915366, 58.74470917378932], [36.12630171095515, 58.695487372544164], [36.173327264341765, 58.52495514636291], [36.32360232888436, 58.49984040011435], [36.520592889350326, 58.558493149739036], [36.668594190769284, 58.68528127690939], [36.81556196521251, 58.7582225613221], [36.86424116409842, 58.842765204450586], [37.1222099141562, 58.86604543714719], [37.18752892442029, 58.770857448812194], [37.62626183381656, 58.490228582782834], [37.716592238441024, 58.621693427409696], [37.9408679536931, 58.64133047142411], [38.04763146322142, 58.73574331340319], [38.47819949700914, 58.70602936496317], [38.55002973828175, 58.777239487712166], [38.91589887942973, 58.74437327700508], [38.999924757721374, 58.84633087786767], [38.94029015526644, 58.944309394163156], [39.11878055238054, 58.953766180964465], [39.49953250482122, 58.88893809711544], [39.61952518104226, 58.89454499055881], [39.968961216387015, 58.7594627965708], [40.16078413298135, 58.55859650342586], [40.292765740646416, 58.54415293990621], [40.56510053895869, 58.59053253814608], [40.92600874180994, 58.579112047482965], [41.03421919126265, 58.522061266514186], [41.06450158138284, 58.41054352516352], [41.16392703580402, 58.36088247344736], [40.888801711329904, 58.19815338856802], [40.88466759623253, 58.12554800093949], [40.74400434812213, 58.05154735023001], [40.62638878781229, 57.94039134408524], [40.62256473197675, 57.65493073186775], [40.66338911271737, 57.58103343394578], [40.49905805828274, 57.5803099644333], [40.38516320192019, 57.497575996435046], [40.448001742586314, 57.44104197940379], [40.44521121642447, 57.276349188863946], [40.3270788921771, 57.29335073544803], [40.192513462126556, 57.21281301530837], [40.063942499147004, 57.21940175978335], [39.841733839644974, 57.17682037985662], [39.84400760276861, 57.1289421657483], [39.52020307760995, 57.02685537457586], [39.52733442624276, 56.95580027875985], [39.386774530020546, 56.83544586913155], [39.41716027202892, 56.77209056272926], [39.67936648907221, 56.82177745196782], [39.85878706217318, 56.77963532251209], [39.87852745897504, 56.64605174439248], [39.94260623578913, 56.529883124006915], [40.1559265483715, 56.43428172542127], [40.490789828987374, 56.58383332045133], [40.71465213398875, 56.59845775022495], [40.933656854380274, 56.501771145122234], [41.052822707402015, 56.47508026774011], [41.933905877354334, 56.516808986945136], [41.95767703556669, 56.390563463033345], [42.06640424985625, 56.368394273476895], [42.28861290935828, 56.47128205032635], [42.46927371590925, 56.421233425881894], [42.58792280499341, 56.42022573552924], [42.76083214708592, 56.30607249584898], [42.754734328126744, 56.22013458874022], [42.90593956865615, 56.15176666899657], [42.68621137875209, 56.122104397399994], [42.69406619599812, 56.002783514747364], [42.56497846908104, 55.969090480840975], [42.48643029212428, 55.851914171002136], [42.380286900220256, 55.77680247715256], [42.28096479678794, 55.76998118778158], [42.05565555186223, 55.61293650981207], [42.06836795371805, 55.48126496050952], [42.11704715260396, 55.421733709942714], [41.932975702266845, 55.329853014405046], [41.85866499229553, 55.24091787376085], [41.87024051258959, 55.15761546498169], [41.783217400762396, 55.11911652330889], [41.88636356003025, 55.0591718606928], [42.16665652837605, 54.94904938422167], [42.43971479710018, 55.01297313140486], [42.466793247210546, 54.87130219204249], [42.39051883337743, 54.80704254807512], [42.41925092988646, 54.73629751242021], [42.523844028179326, 54.72249990494663], [42.69933719265731, 54.5823534207737], [42.556606886998225, 54.49222972352288], [42.625233189160326, 54.37342560480778], [42.52715132007734, 54.36660431633612], [42.380803664157725, 54.26387156821829], [42.20634402755479, 54.23051443109608], [42.27279992028008, 54.17147410694446], [42.462762485800056, 54.253872179057794], [42.59598432781445, 54.17653839802864], [42.53469607896085, 54.082745672774536], [42.318585239317315, 54.098920397058635], [42.43744103397654, 54.01179393244399], [42.30773318943511, 53.84746287711005], [42.13441043529332, 53.812167874547754], [42.093896112015955, 53.539833076235425], [42.31217736199562, 53.440407620015606], [42.354241977984884, 53.36821564443642], [42.74749962670637, 53.02226776814297], [42.905422804718626, 52.96968699815642], [43.09517866376427, 52.82171153425986], [43.23656538318585, 52.66123037408249], [43.041641880268514, 52.56059052193501], [43.01125613826014, 52.48222321213149], [43.07957238116046, 52.40274485918786], [42.99647667795631, 52.364659329564404], [42.75153038901624, 52.17376658805756], [42.75132368344123, 52.07775177742258], [42.805997349398126, 52.012226061583476], [42.69406619599812, 51.966079007340284], [42.643319939563526, 51.804021715130034], [42.49035769984795, 51.69278819372016], [42.48922081918545, 51.60770294913175], [42.73406375533801, 51.47900279404371], [42.860877720030714, 51.381411852275164], [42.87286665237406, 51.2313434924082], [43.14158410042586, 51.121996161393724], [43.329789666759666, 51.01766144551925], [43.642225376300075, 51.066082261986764], [43.68232628842742, 51.112952785742436], [43.864434034902786, 51.11303030010822], [44.004477167187474, 51.087269598712965], [44.181830681840495, 51.11657013600296], [44.21025271998701, 51.193516344303816], [44.65963097458979, 51.17263906504081], [45.04244998637773, 51.126259466800946], [45.201820103415, 51.03962392770205], [45.21504926920841, 50.94205882435523], [45.308066848106535, 50.87684316687864], [45.29256391829017, 50.781086737762735], [45.191278110995995, 50.69737091693423], [45.24109419144378, 50.586266588532226], [45.4951355319792, 50.61256989228667], [45.667631462921634, 50.59360464094141], [45.67817345624002, 50.729461982184716], [45.810671827842555, 50.77359365482329], [45.889530064061205, 50.75855581300033], [46.06843387232533, 50.65230906830885], [46.06533328600233, 50.54368520770612], [46.25477908668546, 50.52887990987989], [46.294569939551025, 50.567353014030346], [46.46076134595933, 50.546940822760746], [46.48318891793417, 50.61675568332811], [46.58344119555471, 50.70072988477631], [46.70756798687307, 50.690885525246756], [46.83045454294279, 50.63251699556287], [46.87768680190436, 50.523944810904254], [47.00770470570757, 50.48017487257226], [47.184024693384856, 50.51190420171753], [47.27735232884686, 50.371731879122876], [47.446630581564115, 50.36845608670582], [47.42917768737374, 50.35796011006077], [47.37636437357145, 50.31811758076374], [47.326444939977506, 50.27352081969585], [47.2947156105503, 50.21750356709147], [47.29771284362323, 50.14024730081512], [47.29523237487322, 50.05849518492937], [47.24836185078448, 50.00087596292393], [47.129609409377764, 49.93904511168671], [46.99194339375222, 49.852719631543124], [46.88957238138201, 49.69696686461542], [46.82311648945466, 49.50225006773964], [46.80208418151187, 49.367064520864105], [46.85298546731937, 49.30386424417114], [46.953444451694764, 49.25260122333761], [47.0181433449242, 49.199917100616034], [47.03137251159092, 49.1502818873997], [47.014267612502294, 49.09834707294637], [46.96222944518439, 49.0383507350555], [46.85298546731937, 48.9696210801073], [46.70260704935001, 48.8055484075806], [46.64356408456243, 48.659068268597366], [46.60922773619859, 48.573882961616135], [46.660904168490475, 48.41223908140715], [46.85314049661625, 48.32358816181045], [47.00434573750226, 48.284469102565495], [47.064600457554576, 48.232456773463724], [47.11901574075793, 48.12698517515602], [47.11157433450791, 48.020118313176425], [47.09328087747659, 47.947719631535506], [47.13079796732046, 47.87676788999876], [47.202059767450976, 47.79245779071458], [47.292338494664875, 47.74093638771957], [47.387268100785036, 47.76866079364417], [47.48193932474376, 47.80390412046722], [47.60017500182755, 47.79000316018072], [47.93467654805286, 47.76070262307121], [48.10996300638689, 47.745406399112824], [48.16701378763713, 47.70876780861788], [48.275689324746935, 47.58996369077887], [48.413096958211014, 47.45648346616896], [48.5525199725345, 47.320987860699674], [48.600682407430526, 47.26230927183225], [48.714318882040345, 47.10048452411024], [48.83188276550436, 46.95493785256018], [48.959316847536115, 46.77458710386155], [48.95032514831735, 46.725778713561866], [48.88361087422854, 46.70541819923888], [48.77638227722289, 46.7103274603066], [48.69359663269131, 46.73683747007233], [48.64708784362861, 46.7586966009318], [48.60533328633679, 46.76593130145265], [48.558359409383485, 46.75714630796304], [48.51851688008645, 46.73430532489003], [48.502393833211386, 46.69864858660864], [48.5092151222739, 46.64996938738969], [48.54115115743028, 46.60563100848326], [48.58600630065962, 46.57710561785815], [48.610139194539926, 46.566460272806026], [48.774315219931225, 46.50793671323548], [48.95895511251007, 46.442126776711774], [49.18426435730265, 46.34885081642494], [49.23222656250002, 46.337158203125], [49.24589843750002, 46.2916015625], [49.12548828125, 46.28173828125], [49.11064453125002, 46.228466796875], [49.07958984375, 46.189208984375], [48.80996093750002, 46.100488281249994], [48.74257812500002, 46.100732421874994], [48.683691406250006, 46.086181640625], [48.68730468750002, 46.028759765625], [48.70341796875002, 45.976220703124994], [48.749609375000006, 45.920556640624994], [48.729589843750006, 45.896826171875], [48.68964843750001, 45.8888671875], [48.63740234375001, 45.90576171875], [48.58906250000001, 45.934863281249996], [48.53730468750001, 45.942138671875], [48.48701171875001, 45.934863281249996], [48.25761718750002, 45.777783203125], [48.1591796875, 45.73701171875], [48.052832031250006, 45.720996093749996], [47.830175781250006, 45.663037109375], [47.76396484375002, 45.665966796875], [47.70107421875002, 45.686181640624994], [47.64980468750002, 45.65673828125], [47.63330078125, 45.584033203124996], [47.57402343750002, 45.63427734375], [47.508398437500006, 45.674169921875], [47.47939453125002, 45.68759765625], [47.46328125000002, 45.6796875], [47.52421875000002, 45.601708984374994], [47.52835411171712, 45.54565185887639], [47.52949218750001, 45.530224609375], [47.51455078125002, 45.49091796875], [47.48867187500002, 45.455078125], [47.45449218750002, 45.433056640625], [47.4130859375, 45.421044921874994], [47.39111328125, 45.294775390625], [47.35126953125001, 45.217724609375], [47.29619140625002, 45.149462890624996], [47.22148437500002, 45.024267578125], [47.16152343750002, 44.969628906249994], [47.11474609375, 44.90595703125], [47.08378906250002, 44.8169921875], [47.03925781250001, 44.837890625], [47.0029296875, 44.87607421875], [46.98369140625002, 44.825585937499994], [46.95742187500002, 44.782568359375], [46.89137566874225, 44.74602094187858], [46.84121093750002, 44.71826171875], [46.75527343750002, 44.656542968749996], [46.71611328125002, 44.560693359374994], [46.70722656250001, 44.503320312499994], [46.72089843750001, 44.45166015625], [46.753027343750006, 44.420654296875], [46.91572265625001, 44.387158203125], [47.02363281250001, 44.34326171875], [47.122656250000006, 44.261669921875], [47.22988281250002, 44.1923828125], [47.30703125000002, 44.103125], [47.36152343750001, 43.993359375], [47.42919921875, 43.7798828125], [47.46279296875002, 43.555029296875], [47.562597656250006, 43.83466796875], [47.646484375, 43.884619140625], [47.62783203125002, 43.805957031249996], [47.567968750000006, 43.684960937499994], [47.50898437500001, 43.509716796875], [47.489843750000006, 43.381689453125], [47.51162109375002, 43.270751953125], [47.51289062500001, 43.21875], [47.46318359375002, 43.035058593749994], [47.488867187500006, 42.999755859375], [47.52900390625001, 42.967138671875], [47.634863281250006, 42.903466796874994], [47.709082031250006, 42.810937499999994], [47.72773437500001, 42.680712890624996], [47.76972656250001, 42.644775390625], [47.822363281250006, 42.6134765625], [48.080175781250006, 42.3537109375], [48.228613281250006, 42.180957031249996], [48.30302734375002, 42.080224609374994], [48.3837890625, 41.953417968749996], [48.426367187500006, 41.923974609374994], [48.47675781250001, 41.905126953125], [48.572851562500006, 41.844482421875], [48.51862023295104, 41.779336452799896], [48.43071862162256, 41.663348700520785], [48.39139285664842, 41.601905422525746], [48.29811689636159, 41.5450096705724], [48.14231245300161, 41.48475495052007], [48.05606448750646, 41.45871002864497], [47.96371870300089, 41.33396312109238], [47.86108930846922, 41.212730210935646], [47.79101606628146, 41.19926850032361], [47.59185509622856, 41.218104559894], [47.52059329609807, 41.22905996353988], [47.31765994648788, 41.28244171809739], [47.261177605992884, 41.3150753850897], [47.20531538268534, 41.455609442707456], [47.14263187031531, 41.51604503027281], [47.0639286639348, 41.554699001627114], [47.01018517435125, 41.587487697916316], [46.987757602736565, 41.62138743749978], [46.930913527215495, 41.67042837174478], [46.82559695820467, 41.743421332357045], [46.749322544141876, 41.812590236979716], [46.69030805846455, 41.83134878190167], [46.61599734882884, 41.8069575058599], [46.57124555846406, 41.80008454036508], [46.55212527851609, 41.81228017838596], [46.53765587747435, 41.87039032649818], [46.42991051614578, 41.89095754655034], [46.41156538268217, 41.904625962891544], [46.26780154804618, 41.96033315690218], [46.21266279479076, 41.989892076173135], [46.15979780455618, 41.99206248632939], [46.04848676939949, 42.00875397395967], [45.95402225116993, 42.03539317480613], [45.91040734231558, 42.07071401627762], [45.84601850767993, 42.10993642838716], [45.726542596221094, 42.15887400976756], [45.638589308460325, 42.20507274023649], [45.63424848814782, 42.23473501237203], [45.68835371275742, 42.357363186200644], [45.72737901090843, 42.474439080653696], [45.82111046657474, 42.48722606083402], [45.9483378442161, 42.575075994961196], [46.09540896964819, 42.715119127245885], [46.169512974044494, 42.72969188107544], [46.12321089017041, 42.843121650343846], [46.335807733240244, 42.90399648714816], [46.42458784425361, 42.876607977775905], [46.5335217632188, 42.96117645932611], [46.403297153840526, 43.11375112631339], [46.42303755064245, 43.314720771346515], [46.35988894981517, 43.360971178377156], [46.337564732426415, 43.4581745474174], [46.438540479559435, 43.540960191359716], [46.48349897629669, 43.6721149767248], [46.58499148916587, 43.7723672552446], [46.58592166515268, 43.872231961036164], [46.45156294067715, 43.88708893480646], [46.46231163867117, 43.96196808555868], [46.349346958295484, 43.997728176114435], [46.25694949702165, 43.94829966929427], [46.22025922957977, 43.863007717332266], [46.01644738064209, 43.8764177520776], [46.0446627132136, 43.93364940019961], [45.80292036338403, 43.97814280894346], [45.710419549322694, 43.95514679618765], [45.50939822834556, 44.01519481069192], [45.45906538306093, 43.99989858734989], [45.431780225576915, 43.878613999936135], [45.23737348839575, 43.880164293547296], [45.189727818284155, 43.95173615240151], [45.0833777199058, 43.9527696802765], [45.07986372333215, 43.7877151563294], [44.99997195833919, 43.704567776281806], [44.83874148932824, 43.661056220368266], [44.803498162710014, 43.80205536616222], [44.69363406775801, 43.82988312420679], [44.39928510862086, 43.795156562425404], [44.284873488320784, 43.818850206271975], [44.258518507722954, 43.9246060254477], [43.90608523884265, 43.994214179540734], [43.80335249162414, 43.94054820393643], [43.728731724189686, 43.838719794283065], [43.50176883286531, 43.86657339074935], [43.30002404237564, 43.82399201082262], [43.266020949207416, 43.90977488919975], [43.17476037039478, 43.94780874287915], [43.11119835841748, 43.896494046562964], [42.97508263475578, 43.89096466748538], [42.85209272589856, 43.817119046406845], [42.683214146115915, 43.80717133229115], [42.660063103729215, 43.91669953135823], [42.49697228364397, 44.03043935808989], [42.378116488984745, 43.97147654920337], [42.30597619024894, 44.05772451377527], [42.30308231040027, 44.12852122717288], [42.555470005436405, 44.24489655223408], [42.499142693980104, 44.298898423723244], [42.34587039590201, 44.30556468436265], [42.22980512920333, 44.34370189082955], [42.037982211709675, 44.363907376524196], [41.94455122256085, 44.40292308213452], [41.90455366412027, 44.49475210172807], [41.7293705580048, 44.45855276070131], [41.602246534949586, 44.36747304904196], [41.70404910708061, 44.308355211423816], [41.711490513176614, 44.243010361838685], [41.632528924170515, 44.12190664337686], [41.538477818296656, 44.08531972872248], [41.44949100080902, 43.9939041202789], [41.28247277210073, 44.01162913727484], [41.255911085927835, 44.080617173743576], [40.98543663868992, 44.11555044199929], [40.95071007690848, 43.9893824333526], [40.78172814343907, 43.92682811082864], [40.72385053927093, 43.81047862418916], [40.72343712722164, 43.63149730155919], [40.688725814295594, 43.51959935021447], [40.64798953630495, 43.53390635840587], [40.51900516130445, 43.51202138933026], [40.34227176286623, 43.54274302832778], [40.150138787605044, 43.56979564063258]]], [[[47.94716796875002, 45.6470703125], [47.98710937500002, 45.554052734375], [47.983007812500006, 45.488232421875], [47.96767578125002, 45.469970703125], [47.92031250000002, 45.562060546874996], [47.917578125000006, 45.6181640625], [47.94716796875002, 45.6470703125]]]]}}]}